[{"OBJECT_NAME":"STARLINK-31887","OBJECT_ID":"2024-097E","EPOCH":"2026-03-08T23:26:28.880160","MEAN_MOTION":15.27564903,"ECCENTRICITY":0.00011477,"INCLINATION":43.003,"RA_OF_ASC_NODE":278.7371,"ARG_OF_PERICENTER":262.3895,"MEAN_ANOMALY":97.6826,"EPHEMERIS_TYPE":0,"CLASSIFICATION_TYPE":"U","NORAD_CAT_ID":59839,"ELEMENT_SET_NO":999,"REV_AT_EPOCH":10180,"BSTAR":2.5548016e-5,"MEAN_MOTION_DOT":4.41e-6,"MEAN_MOTION_DDOT":0},{"OBJECT_NAME":"PUCP-SAT 1","OBJECT_ID":"2013-066AC","EPOCH":"2026-03-09T22:02:13.763904","MEAN_MOTION":15.29426022,"ECCENTRICITY":0.00136836,"INCLINATION":97.5787,"RA_OF_ASC_NODE":61.0032,"ARG_OF_PERICENTER":300.1183,"MEAN_ANOMALY":59.87,"EPHEMERIS_TYPE":0,"CLASSIFICATION_TYPE":"U","NORAD_CAT_ID":39442,"ELEMENT_SET_NO":999,"REV_AT_EPOCH":66907,"BSTAR":0.00088755185,"MEAN_MOTION_DOT":0.00025373,"MEAN_MOTION_DDOT":0}]
